{
  "norad_id": 66252,
  "name": "STARLINK-35483",
  "history": [
    {
      "epoch": "2026-03-28T17:14:36.546720Z",
      "apogee_km": 475.8852867145415,
      "perigee_km": 474.47076249346264,
      "latitude_deg": -3.32023846504579e-06,
      "longitude_deg": 110.45221889703404,
      "height_km": 475.9504225846422,
      "semi_major_axis_km": 6853.315024604001,
      "eccentricity": 0.0001032,
      "inclination_deg": 53.1582,
      "raan_deg": 195.2394,
      "arg_perigee_deg": 79.7514,
      "mean_anomaly_deg": 280.3603,
      "mean_motion_rev_day": 15.30212407
    },
    {
      "epoch": "2026-03-30T13:08:06.700128Z",
      "apogee_km": 475.9628523984384,
      "perigee_km": 474.5104854505198,
      "latitude_deg": 5.436750617041204e-05,
      "longitude_deg": 161.77825526174595,
      "height_km": 476.0531892645742,
      "semi_major_axis_km": 6853.373668924479,
      "eccentricity": 0.00010596,
      "inclination_deg": 53.1583,
      "raan_deg": 186.7436,
      "arg_perigee_deg": 83.5436,
      "mean_anomaly_deg": 276.5686,
      "mean_motion_rev_day": 15.30192766
    },
    {
      "epoch": "2026-03-30T16:16:13.139904Z",
      "apogee_km": 476.01100304774627,
      "perigee_km": 474.405538384628,
      "latitude_deg": 1.1212621656845608e-05,
      "longitude_deg": 114.01723596643816,
      "height_km": 475.9115687660016,
      "semi_major_axis_km": 6853.345270716187,
      "eccentricity": 0.00011713,
      "inclination_deg": 53.1586,
      "raan_deg": 186.1382,
      "arg_perigee_deg": 75.9549,
      "mean_anomaly_deg": 284.1582,
      "mean_motion_rev_day": 15.30202277
    },
    {
      "epoch": "2026-03-31T12:38:54.553920Z",
      "apogee_km": 475.42039682935956,
      "perigee_km": 474.8552757863581,
      "latitude_deg": -2.4438880579060637e-06,
      "longitude_deg": 163.5628667764797,
      "height_km": 476.300333616424,
      "semi_major_axis_km": 6853.274836307859,
      "eccentricity": 4.123e-05,
      "inclination_deg": 53.1591,
      "raan_deg": 182.1933,
      "arg_perigee_deg": 158.5917,
      "mean_anomaly_deg": 201.5101,
      "mean_motion_rev_day": 15.30225867
    },
    {
      "epoch": "2026-04-01T12:09:42.679872Z",
      "apogee_km": 477.38118755584037,
      "perigee_km": 472.90736553851,
      "latitude_deg": -5.386255873549423e-05,
      "longitude_deg": 165.34654523073962,
      "height_km": 476.41020941569025,
      "semi_major_axis_km": 6853.2812765471745,
      "eccentricity": 0.0003264,
      "inclination_deg": 53.1587,
      "raan_deg": 177.6432,
      "arg_perigee_deg": 99.5447,
      "mean_anomaly_deg": 260.5922,
      "mean_motion_rev_day": 15.3022371
    },
    {
      "epoch": "2026-04-02T11:40:30.150912Z",
      "apogee_km": 475.99070003186625,
      "perigee_km": 474.31589294921105,
      "latitude_deg": -3.756808555789659e-05,
      "longitude_deg": 167.13361006888107,
      "height_km": 476.1069835602016,
      "semi_major_axis_km": 6853.290296490539,
      "eccentricity": 0.00012219,
      "inclination_deg": 53.1608,
      "raan_deg": 173.0937,
      "arg_perigee_deg": 93.7963,
      "mean_anomaly_deg": 266.3177,
      "mean_motion_rev_day": 15.30220689
    },
    {
      "epoch": "2026-04-02T22:38:52.214496Z",
      "apogee_km": 475.7999455497056,
      "perigee_km": 474.48644586739556,
      "latitude_deg": -2.0218590773790797e-05,
      "longitude_deg": -0.033744983024206435,
      "height_km": 476.08984218961297,
      "semi_major_axis_km": 6853.28019570855,
      "eccentricity": 9.583e-05,
      "inclination_deg": 53.1593,
      "raan_deg": 170.9689,
      "arg_perigee_deg": 94.2098,
      "mean_anomaly_deg": 265.9012,
      "mean_motion_rev_day": 15.30224072
    },
    {
      "epoch": "2026-04-03T11:11:18.370176Z",
      "apogee_km": 476.6186355557147,
      "perigee_km": 474.0783226280337,
      "latitude_deg": 2.076677792906042e-05,
      "longitude_deg": 168.9168794658285,
      "height_km": 475.33719057312084,
      "semi_major_axis_km": 6853.4854790918735,
      "eccentricity": 0.00018533,
      "inclination_deg": 53.1591,
      "raan_deg": 168.5435,
      "arg_perigee_deg": 44.2878,
      "mean_anomaly_deg": 315.8271,
      "mean_motion_rev_day": 15.3015532
    },
    {
      "epoch": "2026-04-04T12:16:10.558848Z",
      "apogee_km": 476.15040703918385,
      "perigee_km": 474.0067212107251,
      "latitude_deg": -1.8977174490867178e-05,
      "longitude_deg": 146.81464974289554,
      "height_km": 475.396012791982,
      "semi_major_axis_km": 6853.215564124954,
      "eccentricity": 0.0001564,
      "inclination_deg": 53.1583,
      "raan_deg": 163.6888,
      "arg_perigee_deg": 57.2135,
      "mean_anomaly_deg": 302.9016,
      "mean_motion_rev_day": 15.30245719
    },
    {
      "epoch": "2026-04-05T13:21:01.190592Z",
      "apogee_km": 476.1882932721692,
      "perigee_km": 474.25564604272586,
      "latitude_deg": -7.11151542106565e-05,
      "longitude_deg": 124.72231481191176,
      "height_km": 475.81387944588766,
      "semi_major_axis_km": 6853.358969657447,
      "eccentricity": 0.000141,
      "inclination_deg": 53.1586,
      "raan_deg": 158.8375,
      "arg_perigee_deg": 71.5426,
      "mean_anomaly_deg": 288.5727,
      "mean_motion_rev_day": 15.30197689
    },
    {
      "epoch": "2026-04-05T13:21:01.192320Z",
      "apogee_km": 476.18836180576,
      "perigee_km": 474.25557750913595,
      "latitude_deg": -7.197844803075585e-05,
      "longitude_deg": 124.72230694896422,
      "height_km": 475.8138577469221,
      "semi_major_axis_km": 6853.358969657447,
      "eccentricity": 0.00014101,
      "inclination_deg": 53.1586,
      "raan_deg": 158.8375,
      "arg_perigee_deg": 71.5426,
      "mean_anomaly_deg": 288.5727,
      "mean_motion_rev_day": 15.30197689
    },
    {
      "epoch": "2026-04-07T20:12:52.649856Z",
      "apogee_km": 476.05339419140546,
      "perigee_km": 474.3647297217394,
      "latitude_deg": 3.423100648332984e-07,
      "longitude_deg": 8.881652207120903,
      "height_km": 475.911986796423,
      "semi_major_axis_km": 6853.346061956572,
      "eccentricity": 0.0001232,
      "inclination_deg": 53.1572,
      "raan_deg": 148.2144,
      "arg_perigee_deg": 76.6503,
      "mean_anomaly_deg": 283.4635,
      "mean_motion_rev_day": 15.30202012
    },
    {
      "epoch": "2026-04-08T10:19:21.334656Z",
      "apogee_km": 475.9943495685002,
      "perigee_km": 474.3891629072141,
      "latitude_deg": -3.165642910774406e-05,
      "longitude_deg": 153.95051291626248,
      "height_km": 475.8849075523572,
      "semi_major_axis_km": 6853.328756237857,
      "eccentricity": 0.00011711,
      "inclination_deg": 53.1578,
      "raan_deg": 145.4822,
      "arg_perigee_deg": 75.2098,
      "mean_anomaly_deg": 284.9032,
      "mean_motion_rev_day": 15.30207808
    },
    {
      "epoch": "2026-04-09T09:50:09.306816Z",
      "apogee_km": 476.00725549034996,
      "perigee_km": 474.47360668882175,
      "latitude_deg": -3.110930258228679e-05,
      "longitude_deg": 155.73586840292228,
      "height_km": 476.0707187147294,
      "semi_major_axis_km": 6853.377431089586,
      "eccentricity": 0.00011189,
      "inclination_deg": 53.1579,
      "raan_deg": 140.9331,
      "arg_perigee_deg": 84.9293,
      "mean_anomaly_deg": 275.1835,
      "mean_motion_rev_day": 15.30191506
    },
    {
      "epoch": "2026-04-10T12:29:04.458336Z",
      "apogee_km": 476.23019812974326,
      "perigee_km": 474.4263660674942,
      "latitude_deg": -4.221805027547765e-05,
      "longitude_deg": 109.75563786982076,
      "height_km": 476.0498248681119,
      "semi_major_axis_km": 6853.465282098618,
      "eccentricity": 0.0001316,
      "inclination_deg": 53.1579,
      "raan_deg": 135.7771,
      "arg_perigee_deg": 78.7294,
      "mean_anomaly_deg": 281.3854,
      "mean_motion_rev_day": 15.30162084
    },
    {
      "epoch": "2026-04-11T08:51:46.762272Z",
      "apogee_km": 476.08871346745855,
      "perigee_km": 474.42333896208766,
      "latitude_deg": 2.0748175656412313e-05,
      "longitude_deg": 159.29700478758429,
      "height_km": 475.91008794824285,
      "semi_major_axis_km": 6853.393026214772,
      "eccentricity": 0.0001215,
      "inclination_deg": 53.1577,
      "raan_deg": 131.8316,
      "arg_perigee_deg": 72.9672,
      "mean_anomaly_deg": 287.1462,
      "mean_motion_rev_day": 15.30186283
    },
    {
      "epoch": "2026-04-12T08:22:34.513248Z",
      "apogee_km": 476.33127785940815,
      "perigee_km": 474.0610427167312,
      "latitude_deg": -5.793093490083781e-06,
      "longitude_deg": 161.08146600599278,
      "height_km": 475.9146520029285,
      "semi_major_axis_km": 6853.33316028807,
      "eccentricity": 0.00016563,
      "inclination_deg": 53.1576,
      "raan_deg": 127.2807,
      "arg_perigee_deg": 80.9361,
      "mean_anomaly_deg": 279.1827,
      "mean_motion_rev_day": 15.30206333
    },
    {
      "epoch": "2026-04-14T07:24:09.054432Z",
      "apogee_km": 476.0255046500679,
      "perigee_km": 474.3711095069384,
      "latitude_deg": -6.35480617372989e-05,
      "longitude_deg": 164.65580216578758,
      "height_km": 475.65730861978267,
      "semi_major_axis_km": 6853.335307078502,
      "eccentricity": 0.0001207,
      "inclination_deg": 53.1589,
      "raan_deg": 118.1803,
      "arg_perigee_deg": 57.9214,
      "mean_anomaly_deg": 302.1903,
      "mean_motion_rev_day": 15.30205614
    },
    {
      "epoch": "2026-04-15T17:53:19.382208Z",
      "apogee_km": 476.1607751737374,
      "perigee_km": 474.2418404475502,
      "latitude_deg": 7.2305529486433426e-06,
      "longitude_deg": -0.7310729602872624,
      "height_km": 476.050369605348,
      "semi_major_axis_km": 6853.3383078106435,
      "eccentricity": 0.00014,
      "inclination_deg": 53.1584,
      "raan_deg": 111.5027,
      "arg_perigee_deg": 87.0926,
      "mean_anomaly_deg": 273.0235,
      "mean_motion_rev_day": 15.30204609
    },
    {
      "epoch": "2026-04-16T17:24:07.431264Z",
      "apogee_km": 476.20078903663034,
      "perigee_km": 474.2366172921038,
      "latitude_deg": 4.828852985185577e-06,
      "longitude_deg": 1.0530638844863396,
      "height_km": 475.8781872246237,
      "semi_major_axis_km": 6853.355703164367,
      "eccentricity": 0.0001433,
      "inclination_deg": 53.1584,
      "raan_deg": 106.9527,
      "arg_perigee_deg": 75.9598,
      "mean_anomaly_deg": 284.1562,
      "mean_motion_rev_day": 15.30198783
    },
    {
      "epoch": "2026-04-17T23:11:08.119680Z",
      "apogee_km": 476.22386966992326,
      "perigee_km": 474.18335603585183,
      "latitude_deg": -1.4528993538948672e-05,
      "longitude_deg": -92.68738319130475,
      "height_km": 475.854947216977,
      "semi_major_axis_km": 6853.340612852887,
      "eccentricity": 0.00014887,
      "inclination_deg": 53.1583,
      "raan_deg": 101.1883,
      "arg_perigee_deg": 76.0288,
      "mean_anomaly_deg": 284.0878,
      "mean_motion_rev_day": 15.30203837
    },
    {
      "epoch": "2026-04-18T16:25:43.042080Z",
      "apogee_km": 476.18630094258515,
      "perigee_km": 474.14675781224196,
      "latitude_deg": 3.365191365329412e-05,
      "longitude_deg": 4.622496498151262,
      "height_km": 475.80582139750834,
      "semi_major_axis_km": 6853.303529377413,
      "eccentricity": 0.0001488,
      "inclination_deg": 53.1579,
      "raan_deg": 97.8518,
      "arg_perigee_deg": 75.3259,
      "mean_anomaly_deg": 284.7907,
      "mean_motion_rev_day": 15.30216257
    }
  ]
}